NORAD_CAT_ID,OBJECT_NAME,OBJECT_TYPE,EPOCH,MEAN_MOTION,ECCENTRICITY,INCLINATION,RA_OF_ASC_NODE,ARG_OF_PERICENTER,MEAN_ANOMALY,BSTAR,MEAN_MOTION_DOT,MEAN_MOTION_DDOT,TLE_LINE0,TLE_LINE1,TLE_LINE2,SEMIMAJOR_AXIS,PERIOD,APOGEE,PERIGEE,DECAYED
53141.0,STARLINK-4103,PAYLOAD,2022-12-11 12:54:16,15.08830846,0.000274,53.2189,89.9771,48.1373,311.9852,0.00011938,1.612e-05,0.0,0 STARLINK-4103,1 53141U 22083K   22345.53769496  .00001612  00000-0  11938-3 0  9999,2 53141  53.2189  89.9771 0002740  48.1373 311.9852 15.08830846 22459,6917.908,95.438,541.669,537.878,0.0
53141.0,STARLINK-4103,PAYLOAD,2022-12-11 19:15:49,15.08839208,0.0002734,53.2176,88.787,42.9682,317.1523,0.00026734,3.969e-05,0.0,0 STARLINK-4103,1 53141U 22083K   22345.80265349  .00003969  00000-0  26734-3 0  9994,2 53141  53.2176  88.7870 0002734  42.9682 317.1523 15.08839208 22498,6917.8830000000025,95.438,541.639,537.856,0.0
53141.0,STARLINK-4103,PAYLOAD,2022-12-12 07:58:54,15.08847183,0.0002682,53.2173,86.40799999999999,43.5884,316.532,0.00033761,5.09e-05,0.0,0 STARLINK-4103,1 53141U 22083K   22346.33257118  .00005090  00000-0  33761-3 0  9993,2 53141  53.2173  86.4080 0002682  43.5884 316.5320 15.08847183 23205,6917.858,95.437,541.5790000000002,537.868,0.0
53141.0,STARLINK-4103,PAYLOAD,2022-12-12 11:09:40,15.08847244,0.0002686,53.2172,85.8134,43.3939,316.7264,0.00035931,5.436e-05,0.0,0 STARLINK-4103,1 53141U 22083K   22346.46505094  .00005436  00000-0  35931-3 0  9991,2 53141  53.2172  85.8134 0002686  43.3939 316.7264 15.08847244 22598,6917.858,95.437,541.581,537.865,0.0
53141.0,STARLINK-4103,PAYLOAD,2022-12-12 19:06:36,15.08840037,0.0002671,53.2171,84.3265,41.9316,318.188,0.00011498,1.542e-05,0.0,0 STARLINK-4103,1 53141U 22083K   22346.79625280  .00001542  00000-0  11498-3 0  9993,2 53141  53.2171  84.3265 0002671  41.9316 318.1880 15.08840037 22642,6917.88,95.438,541.5930000000002,537.898,0.0
53141.0,STARLINK-4103,PAYLOAD,2022-12-12 23:52:45,15.08841519,0.0002618,53.217,83.4345,41.6984,318.4207,0.00013636,1.883e-05,0.0,0 STARLINK-4103,1 53141U 22083K   22346.99497208  .00001883  00000-0  13636-3 0  9996,2 53141  53.2170  83.4345 0002618  41.6984 318.4207 15.08841519 23305,6917.876,95.437,541.552,537.93,0.0
53141.0,STARLINK-4103,PAYLOAD,2022-12-13 06:14:18,15.08838236,0.0002603,53.2169,82.2454,38.472,321.6458,6.4127e-05,7.32e-06,0.0,0 STARLINK-4103,1 53141U 22083K   22347.25993375  .00000732  00000-0  64127-4 0  9996,2 53141  53.2169  82.2454 0002603  38.4720 321.6458 15.08838236 22717,6917.886,95.438,541.552,537.95,0.0
53141.0,STARLINK-4103,PAYLOAD,2022-12-13 18:57:23,15.08843147,0.000263,53.2172,79.8666,43.0503,317.0694,0.00013843,1.916e-05,0.0,0 STARLINK-4103,1 53141U 22083K   22347.78985262  .00001916  00000-0  13843-3 0  9993,2 53141  53.2172  79.8666 0002630  43.0503 317.0694 15.08843147 22795,6917.871,95.437,541.555,537.9159999999998,0.0
53141.0,STARLINK-4103,PAYLOAD,2022-12-14 12:26:37,15.0884417,0.0002648,53.2165,76.596,34.3131,325.8031,0.00013544,1.868e-05,0.0,0 STARLINK-4103,1 53141U 22083K   22348.51849177  .00001868  00000-0  13544-3 0  9993,2 53141  53.2165  76.5960 0002648  34.3131 325.8031 15.08844170 22909,6917.868,95.437,541.564,537.901,0.0
53141.0,STARLINK-4103,PAYLOAD,2022-12-14 15:37:24,15.08842184,0.0002504,53.2184,76.0014,37.6355,322.4812,6.960899999999999e-05,8.2e-06,0.0,0 STARLINK-4103,1 53141U 22083K   22348.65097289  .00000820  00000-0  69609-4 0  9998,2 53141  53.2184  76.0014 0002504  37.6355 322.4812 15.08842184 23555,6917.874,95.437,541.471,538.006,0.0
53141.0,STARLINK-4103,PAYLOAD,2022-12-15 10:42:02,15.08837173,0.000263,53.2188,72.434,37.9856,322.1321,5.9626e-05,6.61e-06,0.0,0 STARLINK-4103,1 53141U 22083K   22349.44585719  .00000661  00000-0  59626-4 0  9997,2 53141  53.2188  72.4340 0002630  37.9856 322.1321 15.08837173 23677,6917.889,95.438,541.573,537.935,0.0
53141.0,STARLINK-4103,PAYLOAD,2022-12-15 12:17:24,15.08842799,0.0002466,53.2184,72.1356,37.664,322.4525,7.4046e-05,8.900000000000001e-06,0.0,0 STARLINK-4103,1 53141U 22083K   22349.51209273  .00000890  00000-0  74046-4 0  9990,2 53141  53.2184  72.1356 0002466  37.6640 322.4525 15.08842799 23053,6917.871999999999,95.437,541.443,538.031,0.0
53141.0,STARLINK-4103,PAYLOAD,2022-12-15 17:03:33,15.08849668,0.0002475,53.2186,71.2438,35.7222,324.3936,0.00013218,1.816e-05,0.0,0 STARLINK-4103,1 53141U 22083K   22349.71080712  .00001816  00000-0  13218-3 0  9999,2 53141  53.2186  71.2438 0002475  35.7222 324.3936 15.08849668 23713,6917.851,95.437,541.428,538.004,0.0
53141.0,STARLINK-4103,PAYLOAD,2022-12-16 10:32:48,15.08842185,0.0002592,53.2177,67.9727,30.7688,329.3455,3.4877e-05,2.67e-06,0.0,0 STARLINK-4103,1 53141U 22083K   22350.43945250  .00000267  00000-0  34877-4 0  9991,2 53141  53.2177  67.9727 0002592  30.7688 329.3455 15.08842185 23827,6917.874,95.437,541.5319999999998,537.946,0.0
53141.0,STARLINK-4103,PAYLOAD,2022-12-16 13:43:35,15.08839604,0.0002578,53.2179,67.3779,32.9578,327.1574,1.9922e-05,2.9e-07,0.0,0 STARLINK-4103,1 53141U 22083K   22350.57193371  .00000029  00000-0  19922-4 0  9995,2 53141  53.2179  67.3779 0002578  32.9578 327.1574 15.08839604 23219,6917.882,95.438,541.53,537.9630000000002,0.0
53141.0,STARLINK-4103,PAYLOAD,2022-12-16 16:54:22,15.08830709,0.000267,53.2187,66.7837,29.264,330.8501,-4.0376e-05,-9.31e-06,0.0,0 STARLINK-4103,1 53141U 22083K   22350.70442211 -.00000931  00000-0 -40376-4 0  9991,2 53141  53.2187  66.7837 0002670  29.2640 330.8501 15.08830709 23867,6917.909000000002,95.438,541.621,537.927,0.0
53141.0,STARLINK-4103,PAYLOAD,2022-12-17 11:58:59,15.08834925,0.000252,53.2177,63.2149,32.9606,327.1542,5.9101e-05,6.52e-06,0.0,0 STARLINK-4103,1 53141U 22083K   22351.49929834  .00000652  00000-0  59101-4 0  9993,2 53141  53.2177  63.2149 0002520  32.9606 327.1542 15.08834925 23982,6917.896,95.438,541.504,538.018,0.0
53141.0,STARLINK-4103,PAYLOAD,2022-12-17 13:34:22,15.08833858,0.0002562,53.2177,62.9176,29.4623,330.6513,-9.8139e-06,-4.45e-06,0.0,0 STARLINK-4103,1 53141U 22083K   22351.56553910 -.00000445  00000-0 -98139-5 0  9996,2 53141  53.2177  62.9176 0002562  29.4623 330.6513 15.08833858 23367,6917.899,95.438,541.5369999999998,537.992,0.0
53141.0,STARLINK-4103,PAYLOAD,2022-12-18 11:49:46,15.08832011,0.0002516,53.2179,58.7547,30.4067,329.7071,4.5835e-05,4.41e-06,0.0,0 STARLINK-4103,1 53141U 22083K   22352.49290416  .00000441  00000-0  45835-4 0  9996,2 53141  53.2179  58.7547 0002516  30.4067 329.7071 15.08832011 23501,6917.905,95.438,541.51,538.029,0.0
53141.0,STARLINK-4103,PAYLOAD,2022-12-18 13:25:10,15.08832801,0.0002538,53.2179,58.4573,30.745,329.3691,5.5568e-05,5.96e-06,0.0,0 STARLINK-4103,1 53141U 22083K   22352.55914415  .00000596  00000-0  55568-4 0  9990,2 53141  53.2179  58.4573 0002538  30.7450 329.3691 15.08832801 24142,6917.901999999999,95.438,541.523,538.012,0.0
53141.0,STARLINK-4103,PAYLOAD,2022-12-19 08:29:47,15.08839006,0.0002574,53.2179,54.8889,30.2965,329.8176,0.00011896,1.605e-05,0.0,0 STARLINK-4103,1 53141U 22083K   22353.35402497  .00001605  00000-0  11896-3 0  9998,2 53141  53.2179  54.8889 0002574  30.2965 329.8176 15.08839006 23638,6917.8830000000025,95.438,541.529,537.9680000000002,0.0
53141.0,STARLINK-4103,PAYLOAD,2022-12-19 21:12:51,15.08858247,0.0002687,53.218,52.5101,30.4225,329.6922,0.00044608,6.822e-05,0.0,0 STARLINK-4103,1 53141U 22083K   22353.88393513  .00006822  00000-0  44608-3 0  9997,2 53141  53.2180  52.5101 0002687  30.4225 329.6922 15.08858247 24342,6917.825,95.436,541.548,537.831,0.0
53141.0,STARLINK-4103,PAYLOAD,2022-12-20 13:06:42,15.08860319,0.0002731,53.2177,49.5373,23.9659,336.146,0.00028267,4.216e-05,0.0,0 STARLINK-4103,1 53141U 22083K   22354.54633015  .00004216  00000-0  28267-3 0  9993,2 53141  53.2177  49.5373 0002731  23.9659 336.1460 15.08860319 23817,6917.818,95.436,541.573,537.794,0.0
53141.0,STARLINK-4103,PAYLOAD,2022-12-21 03:25:11,15.08839885,0.000333,53.2177,46.8605,6.7882,353.3154,-8.6225e-05,-1.661e-05,0.0,0 STARLINK-4103,1 53141U 22083K   22355.14249484 -.00001661  00000-0 -86225-4 0  9995,2 53141  53.2177  46.8605 0003330   6.7882 353.3154 15.08839885 24533,6917.880999999999,95.438,542.049,537.442,0.0
53141.0,STARLINK-4103,PAYLOAD,2022-12-21 09:46:44,15.08820156,0.0002563999999999,53.2176,45.6713,29.3696,330.744,-0.00041875,-6.943e-05,0.0,0 STARLINK-4103,1 53141U 22083K   22355.40745898 -.00006943  00000-0 -41875-3 0  9993,2 53141  53.2176  45.6713 0002564  29.3696 330.7440 15.08820156 24573,6917.941,95.439,541.58,538.0319999999998,0.0
53141.0,STARLINK-4103,PAYLOAD,2022-12-21 12:57:30,15.08820252,0.0002599,53.2179,45.0765,26.6124,333.5001,-9.0449e-05,-1.727e-05,0.0,0 STARLINK-4103,1 53141U 22083K   22355.53994166 -.00001727  00000-0 -90449-4 0  9998,2 53141  53.2179  45.0765 0002599  26.6124 333.5001 15.08820252 23964,6917.941,95.439,541.604,538.008,0.0
53141.0,STARLINK-4103,PAYLOAD,2022-12-22 03:15:59,15.08833007,0.0002773,53.2177,42.4007,28.7811,331.3334,0.00053123,8.175e-05,0.0,0 STARLINK-4103,1 53141U 22083K   22356.13610659  .00008175  00000-0  53123-3 0  9996,2 53141  53.2177  42.4007 0002773  28.7811 331.3334 15.08833007 24689,6917.901999999999,95.438,541.685,537.8480000000002,0.0
53141.0,STARLINK-4103,PAYLOAD,2022-12-22 12:48:18,15.08845288,0.0002788,53.2176,40.6169,25.9566,334.1566,0.00095389,0.00014928,0.0,0 STARLINK-4103,1 53141U 22083K   22356.53354846  .00014928  00000-0  95389-3 0  9996,2 53141  53.2176  40.6169 0002788  25.9566 334.1566 15.08845288 24119,6917.864000000001,95.437,541.658,537.8009999999998,0.0
53141.0,STARLINK-4103,PAYLOAD,2022-12-23 03:06:46,15.08841678,0.0002913,53.2176,37.9412,30.8431,329.2732,0.00030405,4.554e-05,0.0,0 STARLINK-4103,1 53141U 22083K   22357.12970968  .00004554  00000-0  30405-3 0  9993,2 53141  53.2176  37.9412 0002913  30.8431 329.2732 15.08841678 24833,6917.875,95.437,541.755,537.725,0.0
